NORAD_CAT_ID,OBJECT_NAME,OBJECT_TYPE,EPOCH,MEAN_MOTION,ECCENTRICITY,INCLINATION,RA_OF_ASC_NODE,ARG_OF_PERICENTER,MEAN_ANOMALY,BSTAR,MEAN_MOTION_DOT,MEAN_MOTION_DDOT,TLE_LINE0,TLE_LINE1,TLE_LINE2,SEMIMAJOR_AXIS,PERIOD,APOGEE,PERIGEE,DECAYED
51753.0,STARLINK-3507,PAYLOAD,2024-05-29 22:48:23,15.08840013,0.0001131,53.2178,341.4362,94.9629,265.1493,4.4136e-05,4.15e-06,0.0,0 STARLINK-3507,1 51753U 22016AR  24150.95026660  .00000415  00000-0  44136-4 0  9990,2 51753  53.2178 341.4362 0001131  94.9629 265.1493 15.08840013126837,6917.88,95.438,540.528,538.963,0.0
51753.0,STARLINK-3507,PAYLOAD,2024-05-30 13:06:51,15.0883989,0.0001125,53.2178,338.7598,92.8353,267.2768,8.7315e-05,1.102e-05,0.0,0 STARLINK-3507,1 51753U 22016AR  24151.54642616  .00001102  00000-0  87315-4 0  9991,2 51753  53.2178 338.7598 0001125  92.8353 267.2768 15.08839890125851,6917.881,95.438,540.524,538.967,0.0
51753.0,STARLINK-3507,PAYLOAD,2024-05-30 22:39:09,15.08843291,0.0001143,53.2178,336.975,101.0206,259.0914,0.00010636,1.405e-05,0.0,0 STARLINK-3507,1 51753U 22016AR  24151.94386321  .00001405  00000-0  10636-3 0  9990,2 51753  53.2178 336.9750 0001143 101.0206 259.0914 15.08843291125910,6917.87,95.437,540.526,538.945,0.0
51753.0,STARLINK-3507,PAYLOAD,2024-05-31 19:19:10,15.08839523,0.0001061,53.2178,333.1121,91.2393,268.8721,2.7264e-05,1.46e-06,0.0,0 STARLINK-3507,1 51753U 22016AR  24152.80498770  .00000146  00000-0  27264-4 0  9995,2 51753  53.2178 333.1121 0001061  91.2393 268.8721 15.08839523127118,6917.882,95.438,540.481,539.013,0.0
51753.0,STARLINK-3507,PAYLOAD,2024-06-01 04:51:28,15.08852468,0.0001196,53.2187,331.3275,82.4201,277.6927,0.00012579,1.715e-05,0.0,0 STARLINK-3507,1 51753U 22016AR  24153.20241652  .00001715  00000-0  12579-3 0  9990,2 51753  53.2187 331.3275 0001196  82.4201 277.6927 15.08852468127172,6917.842,95.437,540.535,538.88,0.0
51753.0,STARLINK-3507,PAYLOAD,2024-06-01 11:13:02,15.08839863,0.0001963,53.2184,330.1394,94.5666,265.555,6.4324e-05,7.36e-06,0.0,0 STARLINK-3507,1 51753U 22016AR  24153.46738835  .00000736  00000-0  64324-4 0  9990,2 51753  53.2184 330.1394 0001963  94.5666 265.5550 15.08839863127216,6917.881,95.438,541.104,538.388,0.0
51753.0,STARLINK-3507,PAYLOAD,2024-06-01 19:09:58,15.08831645,0.0001341,53.2188,328.6512,88.1678,271.9467,-1.3176e-06,-3.09e-06,0.0,0 STARLINK-3507,1 51753U 22016AR  24153.79859649 -.00000309  00000-0 -13176-5 0  9991,2 51753  53.2188 328.6512 0001341  88.1678 271.9467 15.08831645127269,6917.906,95.438,540.699,538.843,0.0
51753.0,STARLINK-3507,PAYLOAD,2024-06-02 04:42:16,15.08842375,0.000137,53.2191,326.8668,87.6428,272.4721,2.7789e-05,1.54e-06,0.0,0 STARLINK-3507,1 51753U 22016AR  24154.19602969  .00000154  00000-0  27789-4 0  9997,2 51753  53.2191 326.8668 0001370  87.6428 272.4721 15.08842375127322,6917.873,95.437,540.686,538.79,0.0
51753.0,STARLINK-3507,PAYLOAD,2024-06-03 10:54:36,15.08838678,0.0001226,53.2156,321.2185,86.5721,273.5411,0.00027419,4.078e-05,0.0,0 STARLINK-3507,1 51753U 22016AR  24155.45459129  .00004078  00000-0  27419-3 0  9993,2 51753  53.2156 321.2185 0001226  86.5721 273.5411 15.08838678127510,6917.884,95.438,540.598,538.901,0.0
51753.0,STARLINK-3507,PAYLOAD,2024-06-03 20:26:55,15.08840555,0.000125,53.2158,319.4347,85.3234,274.7901,0.00026624,3.952e-05,0.0,0 STARLINK-3507,1 51753U 22016AR  24155.85203134  .00003952  00000-0  26624-3 0  9997,2 51753  53.2158 319.4347 0001250  85.3234 274.7901 15.08840555126506,6917.879,95.438,540.608,538.879,0.0
51753.0,STARLINK-3507,PAYLOAD,2024-06-04 04:23:50,15.08852018,0.0001685,53.2163,317.9434,94.5982,265.5202,0.00026912,3.999e-05,0.0,0 STARLINK-3507,1 51753U 22016AR  24156.18322559  .00003999  00000-0  26912-3 0  9998,2 51753  53.2163 317.9434 0001685  94.5982 265.5202 15.08852018126550,6917.844,95.437,540.874,538.543,0.0
51753.0,STARLINK-3507,PAYLOAD,2024-06-04 20:17:42,15.08840944,0.0001555,53.2201,314.9696,102.4953,257.6214,0.00033525,5.052e-05,0.0,0 STARLINK-3507,1 51753U 22016AR  24156.84562739  .00005052  00000-0  33525-3 0  9997,2 51753  53.2201 314.9696 0001555 102.4953 257.6214 15.08840944127723,6917.878,95.437,540.818,538.667,0.0
51753.0,STARLINK-3507,PAYLOAD,2024-06-05 16:57:43,15.08833959,0.0001808,53.2162,311.103,101.4936,258.6259,3.2123e-05,2.23e-06,0.0,0 STARLINK-3507,1 51753U 22016AR  24157.70675368  .00000223  00000-0  32123-4 0  9995,2 51753  53.2162 311.1030 0001808 101.4936 258.6259 15.08833959127853,6917.899,95.438,541.015,538.513,0.0
51753.0,STARLINK-3507,PAYLOAD,2024-06-07 10:17:45,15.08831073,7.58e-05,53.2181,303.3719,324.1743,35.9199,-1.4034e-05,-5.11e-06,0.0,0 STARLINK-3507,1 51753U 22016AR  24159.42900404 -.00000511  00000-0 -14034-4 0  9991,2 51753  53.2181 303.3719 0000758 324.1743  35.9199 15.08831073128118,6917.908,95.438,540.297,539.248,0.0
51753.0,STARLINK-3507,PAYLOAD,2024-06-07 18:14:42,15.08818136,0.0001182,53.2174,301.8879,90.7019,269.4108,8.9604e-07,-2.74e-06,0.0,0 STARLINK-3507,1 51753U 22016AR  24159.76021809 -.00000274  00000-0  89604-6 0  9993,2 51753  53.2174 301.8879 0001182  90.7019 269.4108 15.08818136128168,6917.947,95.439,540.63,538.995,0.0
51753.0,STARLINK-3507,PAYLOAD,2024-06-08 02:11:37,15.08835812,6.28e-05,53.2146,300.3997,66.8315,293.2743,0.00011236,1.501e-05,0.0,0 STARLINK-3507,1 51753U 22016AR  24160.09140488  .00001501  00000-0  11236-3 0  9992,2 51753  53.2146 300.3997 0000628  66.8315 293.2743 15.08835812128215,6917.893,95.438,540.193,539.324,0.0
51753.0,STARLINK-3507,PAYLOAD,2024-06-08 16:30:04,15.08854151,0.0001048,53.2172,297.7222,58.0371,302.0723,0.00040383,6.147e-05,0.0,0 STARLINK-3507,1 51753U 22016AR  24160.68755480  .00006147  00000-0  40383-3 0  9997,2 51753  53.2172 297.7222 0001048  58.0371 302.0723 15.08854151128300,6917.837,95.437,540.427,538.977,0.0
51753.0,STARLINK-3507,PAYLOAD,2024-06-09 02:02:23,15.0885034,5.33e-05,53.2145,295.9387,47.6256,312.4781,0.00028756,4.293e-05,0.0,0 STARLINK-3507,1 51753U 22016AR  24161.08499359  .00004293  00000-0  28756-3 0  9992,2 51753  53.2145 295.9387 0000533  47.6256 312.4781 15.08850340128367,6917.849,95.437,540.083,539.345,0.0
51753.0,STARLINK-3507,PAYLOAD,2024-06-09 08:23:57,15.08829949,0.000187,53.2187,294.7495,67.5835,292.5355,0.00010281,1.348e-05,0.0,0 STARLINK-3507,1 51753U 22016AR  24161.34996843  .00001348  00000-0  10281-3 0  9993,2 51753  53.2187 294.7495 0001870  67.5835 292.5355 15.08829949128400,6917.911,95.438,541.07,538.482,0.0
51753.0,STARLINK-3507,PAYLOAD,2024-06-10 13:00:53,15.08842363,0.00017,53.2161,289.399,77.8248,282.2934,-6.0981e-05,-1.259e-05,0.0,0 STARLINK-3507,1 51753U 22016AR  24162.54228401 -.00001259  00000-0 -60981-4 0  9990,2 51753  53.2161 289.3990 0001700  77.8248 282.2934 15.08842363128589,6917.873,95.437,540.914,538.562,0.0
51753.0,STARLINK-3507,PAYLOAD,2024-06-10 14:36:16,15.08844813,9.13e-05,53.2157,289.1003,84.5307,275.5789,-9.8197e-06,-4.44e-06,0.0,0 STARLINK-3507,1 51753U 22016AR  24162.60852429 -.00000444  00000-0 -98197-5 0  9996,2 51753  53.2157 289.1003 0000913  84.5307 275.5789 15.08844813127521,6917.866,95.437,540.362,539.099,0.0
51753.0,STARLINK-3507,PAYLOAD,2024-06-10 16:11:39,15.08863511,0.0001106,53.2176,288.8066,92.924,267.1879,-0.00023775,-4.072e-05,0.0,0 STARLINK-3507,1 51753U 22016AR  24162.67475989 -.00004072  00000-0 -23775-3 0  9994,2 51753  53.2176 288.8066 0001106  92.9240 267.1879 15.08863511128604,6917.809,95.436,540.439,538.908,0.0
51753.0,STARLINK-3507,PAYLOAD,2024-06-11 01:43:57,15.08871565,0.0001339,53.2176,287.0217,94.8524,265.2621,-0.00021726,-3.747e-05,0.0,0 STARLINK-3507,1 51753U 22016AR  24163.07218753 -.00003747  00000-0 -21726-3 0  9995,2 51753  53.2176 287.0217 0001339  94.8524 265.2621 15.08871565128665,6917.784,95.436,540.575,538.723,0.0
51753.0,STARLINK-3507,PAYLOAD,2024-06-11 14:27:03,15.08839331,0.0001523,53.2169,284.6422,85.049,275.0676,0.00014017,1.943e-05,0.0,0 STARLINK-3507,1 51753U 22016AR  24163.60212694  .00001943  00000-0  14017-3 0  9991,2 51753  53.2169 284.6422 0001523  85.0490 275.0676 15.08839331127671,6917.882,95.438,540.801,538.694,0.0
51753.0,STARLINK-3507,PAYLOAD,2024-06-12 01:34:44,15.08858511,0.0001234,53.2178,282.557,91.1505,268.9628,0.00028819,4.304e-05,0.0,0 STARLINK-3507,1 51753U 22016AR  24164.06579417  .00004304  00000-0  28819-3 0  9990,2 51753  53.2178 282.5570 0001234  91.1505 268.9628 15.08858511128812,6917.824,95.436,540.542,538.835,0.0
51753.0,STARLINK-3507,PAYLOAD,2024-06-12 12:42:27,15.08832069,0.0001398,53.2173,280.4784,79.2819,280.8331,-0.00010771,-2.001e-05,0.0,0 STARLINK-3507,1 51753U 22016AR  24164.52948765 -.00002001  00000-0 -10771-3 0  9999,2 51753  53.2173 280.4784 0001398  79.2819 280.8331 15.08832069128888,6917.905,95.438,540.737,538.803,0.0
51753.0,STARLINK-3507,PAYLOAD,2024-06-12 14:17:50,15.08834833,0.0001398,53.2174,280.1802,85.5732,274.542,-6.0283e-05,-1.247e-05,0.0,0 STARLINK-3507,1 51753U 22016AR  24164.59572636 -.00001247  00000-0 -60283-4 0  9991,2 51753  53.2174 280.1802 0001398  85.5732 274.5420 15.08834833127824,6917.896,95.438,540.728,538.794,0.0
51753.0,STARLINK-3507,PAYLOAD,2024-06-13 12:33:14,15.08840571,0.0001456,53.2171,276.018,83.5118,276.6039,0.00011627,1.563e-05,0.0,0 STARLINK-3507,1 51753U 22016AR  24165.52308523  .00001563  00000-0  11627-3 0  9993,2 51753  53.2171 276.0180 0001456  83.5118 276.6039 15.08840571129035,6917.879,95.438,540.751,538.736,0.0
51753.0,STARLINK-3507,PAYLOAD,2024-06-13 14:08:37,15.08843636,0.0001318,53.2175,275.7199,84.6839,275.4304,8.6329e-05,1.086e-05,0.0,0 STARLINK-3507,1 51753U 22016AR  24165.58932346  .00001086  00000-0  86329-4 0  9997,2 51753  53.2175 275.7199 0001318  84.6839 275.4304 15.08843636127972,6917.869,95.437,540.646,538.823,0.0
51753.0,STARLINK-3507,PAYLOAD,2024-06-13 17:19:23,15.08844967,0.0001085,53.218,275.1253,98.4595,261.652,0.00012647,1.726e-05,0.0,0 STARLINK-3507,1 51753U 22016AR  24165.72180218  .00001726  00000-0  12647-3 0  9998,2 51753  53.2180 275.1253 0001085  98.4595 261.6520 15.08844967127993,6917.865,95.437,540.481,538.98,0.0
